{"type":"FeatureCollection","features":[{"type":"Feature","geometry":{"type":"MultiPolygon","coordinates":[[[[-2.0799,41.171],[-2.1068,41.1752],[-2.1462,41.1844],[-2.149,41.2188],[-2.1549,41.2404],[-2.1564,41.2586],[-2.1635,41.2832],[-2.1737,41.2881],[-2.1731,41.2954],[-2.1691,41.3011],[-2.169,41.3086],[-2.1672,41.3116],[-2.1705,41.3188],[-2.1693,41.3222],[-2.1643,41.3286],[-2.158,41.3316],[-2.1571,41.334],[-2.1568,41.338],[-2.1625,41.3479],[-2.1631,41.3553],[-2.1561,41.3569],[-2.1492,41.3561],[-2.142,41.3618],[-2.1343,41.3653],[-2.1317,41.3683],[-2.1258,41.3696],[-2.1202,41.3797],[-2.116,41.382],[-2.1195,41.3843],[-2.1207,41.39],[-2.1194,41.3903],[-2.1205,41.3943],[-2.1183,41.3962],[-2.1161,41.4087],[-2.1168,41.4249],[-2.1106,41.4354],[-2.1034,41.4393],[-2.1015,41.4458],[-2.0471,41.4343],[-2.0356,41.4269],[-2.034,41.4103],[-2.0348,41.4044],[-2.0436,41.3971],[-2.0419,41.3886],[-2.0383,41.3893],[-2.0293,41.3842],[-2.0165,41.3836],[-2.0167,41.385],[-2.0097,41.3858],[-2.0019,41.3938],[-1.9936,41.3954],[-1.9935,41.3971],[-1.9918,41.3955],[-1.9874,41.3959],[-1.9819,41.4023],[-1.9706,41.401],[-1.9625,41.4034],[-1.9537,41.4086],[-1.9527,41.4075],[-1.9373,41.4079],[-1.9372,41.4113],[-1.939,41.4125],[-1.9399,41.417],[-1.9365,41.4199],[-1.9472,41.421],[-1.9537,41.4243],[-1.9487,41.4296],[-1.9488,41.4358],[-1.9524,41.4455],[-1.953,41.4517],[-1.9515,41.456],[-1.9533,41.4625],[-1.9666,41.4789],[-1.9811,41.4864],[-1.9766,41.4967],[-1.9765,41.5003],[-1.9788,41.5041],[-1.975,41.5161],[-1.976,41.5227],[-1.9784,41.5259],[-1.972,41.5328],[-1.9731,41.5342],[-1.9673,41.5461],[-1.9704,41.5487],[-1.9686,41.5513],[-1.9713,41.5556],[-1.9735,41.558],[-1.9783,41.5586],[-1.9819,41.562],[-1.9807,41.5647],[-1.9937,41.5771],[-1.995,41.5817],[-1.992,41.5904],[-1.9932,41.6005],[-1.9845,41.6071],[-1.977,41.6031],[-1.9693,41.6056],[-1.958,41.6048],[-1.9231,41.5983],[-1.9184,41.6066],[-1.9142,41.6087],[-1.9132,41.6171],[-1.9014,41.6252],[-1.8979,41.6324],[-1.8788,41.641],[-1.874,41.638],[-1.859,41.6615],[-1.8346,41.6606],[-1.8291,41.6626],[-1.8131,41.6606],[-1.8062,41.6643],[-1.8091,41.6847],[-1.8121,41.6865],[-1.8003,41.6971],[-1.7869,41.6994],[-1.7882,41.7028],[-1.785,41.717],[-1.7754,41.7248],[-1.7843,41.7285],[-1.7878,41.7341],[-1.7979,41.7326],[-1.8092,41.7367],[-1.8081,41.7414],[-1.8026,41.7502],[-1.8059,41.7551],[-1.8211,41.7661],[-1.825,41.7736],[-1.8253,41.7784],[-1.8396,41.7871],[-1.8527,41.7889],[-1.8521,41.7925],[-1.8437,41.806],[-1.8338,41.8148],[-1.8257,41.8186],[-1.8191,41.8288],[-1.8208,41.847],[-1.8204,41.8506],[-1.8176,41.8534],[-1.8204,41.8631],[-1.8226,41.8654],[-1.8321,41.8633],[-1.8351,41.8665],[-1.8404,41.8761],[-1.8384,41.8822],[-1.8388,41.889],[-1.8573,41.9095],[-1.8569,41.9233],[-1.8586,41.9328],[-1.8549,41.9368],[-1.8566,41.9459],[-1.8548,41.9552],[-1.8559,41.9663],[-1.8776,41.9524],[-1.8907,41.9478],[-1.9067,41.9456],[-1.9047,41.9433],[-1.9112,41.9406],[-1.9152,41.9323],[-1.9215,41.9343],[-1.9295,41.9295],[-1.9326,41.9304],[-1.9353,41.927],[-1.9406,41.9255],[-1.9549,41.9274],[-1.9613,41.9203],[-1.9703,41.9191],[-1.9841,41.9201],[-1.9983,41.9307],[-1.9987,41.9344],[-2.0013,41.9385],[-2.0131,41.9408],[-2.0161,41.9448],[-2.0196,41.9445],[-2.021,41.9479],[-2.0283,41.9534],[-2.0299,41.9531],[-2.0307,41.9481],[-2.0347,41.9462],[-2.0335,41.9438],[-2.0361,41.9435],[-2.0364,41.9394],[-2.0441,41.9455],[-2.0466,41.9509],[-2.0521,41.9509],[-2.0622,41.9544],[-2.0762,41.9509],[-2.0784,41.9513],[-2.0801,41.9544],[-2.0862,41.9544],[-2.0911,41.9563],[-2.1004,41.9553],[-2.11,41.9579],[-2.1161,41.9636],[-2.115,41.9649],[-2.1163,41.9747],[-2.1193,41.9766],[-2.1199,41.9861],[-2.1241,41.9953],[-2.1194,41.9971],[-2.1121,41.997],[-2.1076,42.0028],[-2.1152,42.0115],[-2.117,42.0215],[-2.1289,42.0262],[-2.1449,42.0416],[-2.1506,42.0422],[-2.1499,42.045],[-2.1548,42.047],[-2.1619,42.0667],[-2.152,42.0687],[-2.1426,42.0741],[-2.1354,42.0746],[-2.1272,42.0805],[-2.1268,42.0881],[-2.1287,42.091],[-2.1273,42.0972],[-2.1367,42.1031],[-2.1481,42.1044],[-2.1728,42.1053],[-2.1969,42.1024],[-2.2089,42.1047],[-2.2171,42.0997],[-2.2241,42.0982],[-2.2313,42.1017],[-2.2378,42.1022],[-2.2589,42.0873],[-2.2696,42.0886],[-2.2716,42.0939],[-2.2817,42.1084],[-2.2806,42.1143],[-2.2826,42.1188],[-2.2789,42.1224],[-2.2822,42.1317],[-2.3182,42.1452],[-2.3269,42.1437],[-2.3321,42.146],[-2.344,42.1455],[-2.3482,42.1467],[-2.3511,42.1449],[-2.3707,42.1434],[-2.3762,42.1414],[-2.3879,42.1425],[-2.3972,42.137],[-2.4014,42.1396],[-2.4176,42.139],[-2.427,42.1358],[-2.4385,42.1373],[-2.4465,42.1322],[-2.4487,42.1277],[-2.4485,42.1241],[-2.4535,42.1213],[-2.4586,42.1153],[-2.4718,42.1143],[-2.4744,42.1111],[-2.4844,42.1063],[-2.4903,42.111],[-2.4959,42.1129],[-2.5011,42.1124],[-2.5085,42.1154],[-2.5147,42.1145],[-2.5165,42.1108],[-2.5162,42.1027],[-2.5194,42.098],[-2.5183,42.0908],[-2.5216,42.0875],[-2.5227,42.0829],[-2.5194,42.081],[-2.5147,42.0742],[-2.5149,42.0689],[-2.5325,42.0552],[-2.5444,42.0541],[-2.5491,42.0515],[-2.552,42.0456],[-2.5513,42.0389],[-2.5553,42.0359],[-2.5587,42.0303],[-2.5653,42.014],[-2.5753,42.0067],[-2.5799,41.9963],[-2.5966,42.0019],[-2.6073,42.0024],[-2.6151,42.0058],[-2.6245,42.0049],[-2.6266,42.0065],[-2.6425,42.0039],[-2.6598,42.0054],[-2.6619,42.0029],[-2.6736,41.9981],[-2.6872,42.0014],[-2.6963,42.0107],[-2.7051,42.0151],[-2.7102,42.0137],[-2.7239,42.0156],[-2.7376,42.0106],[-2.747,42.0093],[-2.7488,42.0151],[-2.7557,42.0239],[-2.7549,42.0296],[-2.7574,42.0331],[-2.752,42.0364],[-2.7385,42.0497],[-2.7346,42.06],[-2.7273,42.0656],[-2.7255,42.0713],[-2.7219,42.0731],[-2.7084,42.0863],[-2.7091,42.089],[-2.7076,42.0905],[-2.7104,42.0964],[-2.7088,42.1014],[-2.7059,42.1036],[-2.7075,42.1064],[-2.7227,42.1159],[-2.7271,42.122],[-2.7347,42.125],[-2.7464,42.1239],[-2.7512,42.1178],[-2.7663,42.1251],[-2.7749,42.1235],[-2.7821,42.1141],[-2.7916,42.1088],[-2.7933,42.1015],[-2.7902,42.0976],[-2.7901,42.0942],[-2.8033,42.0805],[-2.8032,42.0781],[-2.799,42.076],[-2.7968,42.0725],[-2.7949,42.0635],[-2.7984,42.0593],[-2.798,42.0468],[-2.8049,42.0459],[-2.8077,42.041],[-2.8126,42.0366],[-2.8253,42.0408],[-2.8542,42.0305],[-2.8571,42.0284],[-2.8583,42.0227],[-2.8623,42.0192],[-2.8679,42.0178],[-2.8729,42.0132],[-2.8838,42.0095],[-2.8895,42.0104],[-2.8917,42.0173],[-2.9136,42.0229],[-2.9152,42.039],[-2.9204,42.0492],[-2.9198,42.0512],[-2.9234,42.0579],[-2.9229,42.0612],[-2.9269,42.0665],[-2.928,42.0741],[-2.9319,42.0793],[-2.9312,42.0868],[-2.9353,42.0894],[-2.954,42.0856],[-2.9586,42.0859],[-2.9609,42.0843],[-2.9794,42.0841],[-2.9911,42.0876],[-2.9979,42.0865],[-3.0039,42.0833],[-3.0147,42.0884],[-3.0235,42.0893],[-3.0344,42.086],[-3.0525,42.1187],[-3.059,42.127],[-3.0662,42.1333],[-3.0737,42.1358],[-3.0838,42.1335],[-3.0857,42.1342],[-3.0907,42.1486],[-3.0898,42.1593],[-3.0998,42.1674],[-3.0966,42.1695],[-3.1015,42.1697],[-3.1017,42.1718],[-3.1091,42.1763],[-3.1134,42.1763],[-3.115,42.1788],[-3.1153,42.1883],[-3.1251,42.1932],[-3.1294,42.1985],[-3.1279,42.2016],[-3.1188,42.2045],[-3.1134,42.2095],[-3.1038,42.2137],[-3.0992,42.2237],[-3.1021,42.2334],[-3.0939,42.2412],[-3.0923,42.2447],[-3.0886,42.2457],[-3.0977,42.2631],[-3.0896,42.273],[-3.0962,42.279],[-3.0959,42.2875],[-3.1036,42.3059],[-3.1026,42.3089],[-3.1067,42.3126],[-3.1034,42.3208],[-3.0981,42.3223],[-3.0958,42.3245],[-3.0959,42.3269],[-3.1007,42.3286],[-3.1056,42.335],[-3.1107,42.3386],[-3.1108,42.3432],[-3.109,42.3468],[-3.1102,42.3481],[-3.1097,42.3514],[-3.0773,42.3532],[-3.0635,42.3567],[-3.0633,42.3628],[-3.0737,42.3718],[-3.0848,42.3854],[-3.0949,42.3837],[-3.1053,42.3864],[-3.097,42.3986],[-3.0957,42.4052],[-3.0989,42.4085],[-3.1013,42.4168],[-3.0943,42.4177],[-3.0905,42.4199],[-3.0904,42.4224],[-3.0782,42.4158],[-3.0789,42.4059],[-3.0827,42.3974],[-3.0787,42.3914],[-3.075,42.3916],[-3.0735,42.3856],[-3.0679,42.38],[-3.0658,42.3745],[-3.0569,42.3703],[-3.0531,42.3734],[-3.056,42.3851],[-3.064,42.4043],[-3.0589,42.4099],[-3.0574,42.4172],[-3.0633,42.4249],[-3.0577,42.4339],[-3.046,42.4452],[-3.0503,42.4516],[-3.061,42.462],[-3.0642,42.4709],[-3.0733,42.4765],[-3.0823,42.4745],[-3.0893,42.4789],[-3.0904,42.4779],[-3.0914,42.4863],[-3.094,42.4863],[-3.0947,42.4881],[-3.0933,42.4915],[-3.0793,42.4991],[-3.0751,42.5071],[-3.074,42.5157],[-3.0764,42.5208],[-3.0729,42.525],[-3.0726,42.5289],[-3.0765,42.5322],[-3.0813,42.5312],[-3.0841,42.5322],[-3.0827,42.5337],[-3.0836,42.535],[-3.0893,42.5383],[-3.0968,42.5346],[-3.0999,42.5362],[-3.1075,42.5288],[-3.1174,42.5323],[-3.1253,42.5331],[-3.131,42.5372],[-3.1343,42.5421],[-3.1263,42.5438],[-3.1149,42.5513],[-3.1054,42.5539],[-3.1037,42.5531],[-3.1042,42.5568],[-3.1024,42.5594],[-3.0883,42.5671],[-3.0824,42.574],[-3.0862,42.5822],[-3.0793,42.5837],[-3.0681,42.5889],[-3.0598,42.5892],[-3.0652,42.5942],[-3.0646,42.5983],[-3.0604,42.6006],[-3.0604,42.6026],[-3.0656,42.607],[-3.0705,42.6214],[-3.0782,42.6237],[-3.0795,42.6261],[-3.0864,42.6277],[-3.0811,42.6313],[-3.0847,42.6353],[-3.0842,42.6407],[-3.0694,42.6388],[-3.0408,42.6401],[-3.0294,42.6382],[-3.018,42.6322],[-3.0163,42.6335],[-3.0172,42.6348],[-3.0148,42.6402],[-3.0107,42.6417],[-3.0087,42.6409],[-3.0048,42.6443],[-2.9972,42.6421],[-2.9899,42.6423],[-2.986,42.6363],[-2.9806,42.6352],[-2.9759,42.6392],[-2.9704,42.6411],[-2.9526,42.6386],[-2.9465,42.6393],[-2.9335,42.6345],[-2.9258,42.6252],[-2.9261,42.623],[-2.916,42.6195],[-2.9044,42.6202],[-2.9045,42.6265],[-2.8946,42.6277],[-2.8905,42.6257],[-2.894,42.6213],[-2.8821,42.6207],[-2.8832,42.625],[-2.8763,42.631],[-2.8641,42.6333],[-2.8581,42.6384],[-2.8704,42.6389],[-2.8748,42.643],[-2.8893,42.6488],[-2.8965,42.6542],[-2.8972,42.6607],[-2.9002,42.6673],[-2.8966,42.6687],[-2.8995,42.6729],[-2.8951,42.6793],[-2.898,42.6823],[-2.9014,42.6826],[-2.9038,42.6864],[-2.9025,42.6936],[-2.9176,42.6975],[-2.9217,42.7012],[-2.9303,42.6997],[-2.928,42.7048],[-2.9314,42.7084],[-2.9564,42.7104],[-2.9634,42.7081],[-2.9745,42.7084],[-2.9806,42.7035],[-2.987,42.709],[-2.9889,42.7191],[-2.9954,42.7217],[-3.0065,42.7227],[-3.009,42.7245],[-3.011,42.728],[-3.0068,42.7296],[-3.0054,42.7328],[-3.0161,42.7336],[-3.0167,42.741],[-3.0338,42.7368],[-3.0417,42.7392],[-3.0429,42.7435],[-3.0487,42.7491],[-3.0499,42.7559],[-3.0467,42.7603],[-3.048,42.7654],[-3.0645,42.7602],[-3.0757,42.7641],[-3.08,42.7671],[-3.0818,42.7653],[-3.081,42.7618],[-3.0848,42.7571],[-3.0877,42.759],[-3.0911,42.7648],[-3.1004,42.7674],[-3.1095,42.7638],[-3.1157,42.7593],[-3.1479,42.7567],[-3.142,42.7629],[-3.1366,42.7655],[-3.1282,42.7843],[-3.1233,42.7893],[-3.1314,42.7898],[-3.1412,42.7964],[-3.1592,42.8046],[-3.1489,42.8129],[-3.149,42.8202],[-3.142,42.8316],[-3.1412,42.8361],[-3.1321,42.8379],[-3.1299,42.8422],[-3.1314,42.8447],[-3.1284,42.8493],[-3.1231,42.8487],[-3.1208,42.855],[-3.1131,42.8611],[-3.1137,42.8641],[-3.1082,42.8712],[-3.1051,42.8796],[-3.1133,42.8819],[-3.1126,42.8867],[-3.1149,42.8892],[-3.119,42.8913],[-3.1257,42.8913],[-3.1381,42.8762],[-3.1387,42.8713],[-3.1447,42.8687],[-3.1499,42.8613],[-3.1628,42.8567],[-3.1731,42.8572],[-3.1907,42.8695],[-3.2005,42.8551],[-3.207,42.8514],[-3.2094,42.8442],[-3.2222,42.8386],[-3.2055,42.8274],[-3.217,42.8265],[-3.2258,42.8301],[-3.2826,42.8755],[-3.2868,42.8851],[-3.2764,42.887],[-3.2772,42.9016],[-3.2485,42.9121],[-3.2488,42.9158],[-3.2457,42.9238],[-3.2399,42.9316],[-3.2354,42.9331],[-3.2356,42.9439],[-3.2247,42.9497],[-3.2178,42.9487],[-3.2166,42.9456],[-3.2137,42.946],[-3.2116,42.9443],[-3.2098,42.9446],[-3.2097,42.9467],[-3.2065,42.9469],[-3.2026,42.945],[-3.1965,42.9464],[-3.1808,42.9445],[-3.1694,42.9402],[-3.1447,42.9347],[-3.148,42.9323],[-3.1508,42.9195],[-3.1493,42.9171],[-3.1416,42.9132],[-3.1328,42.9135],[-3.1265,42.9041],[-3.1084,42.9062],[-3.1047,42.9102],[-3.0985,42.9061],[-3.0921,42.8988],[-3.0752,42.901],[-3.069,42.9039],[-3.06,42.9017],[-3.0189,42.9085],[-3.0161,42.9106],[-3.0166,42.915],[-3.012,42.9223],[-3.0033,42.9283],[-2.9982,42.9268],[-2.9921,42.9352],[-2.9851,42.9363],[-2.9814,42.9399],[-2.9835,42.9407],[-2.983,42.9422],[-2.985,42.9441],[-2.9909,42.9471],[-2.9948,42.9521],[-3.0011,42.9535],[-3.0083,42.952],[-3.0192,42.954],[-3.022,42.9573],[-3.0202,42.958],[-3.0206,42.9607],[-3.0264,42.9622],[-3.029,42.965],[-3.0341,42.9659],[-3.0379,42.9688],[-3.0419,42.9692],[-3.0452,42.9731],[-3.0395,42.9769],[-3.0371,42.9818],[-3.0431,42.9834],[-3.0482,42.9905],[-3.0517,42.9907],[-3.0523,42.9935],[-3.061,42.9983],[-3.0604,43.0032],[-3.0712,43.0052],[-3.0767,43.0087],[-3.0795,43.0046],[-3.089,43.0016],[-3.1061,43.0054],[-3.1195,43.0057],[-3.1244,43.0078],[-3.1448,43.0068],[-3.1689,43.0149],[-3.1715,43.0183],[-3.1778,43.022],[-3.171,43.0255],[-3.1719,43.0268],[-3.1702,43.0291],[-3.1529,43.027],[-3.1435,43.0274],[-3.1419,43.0298],[-3.1477,43.0345],[-3.1444,43.0381],[-3.1451,43.0493],[-3.1418,43.049],[-3.1436,43.0544],[-3.1406,43.0593],[-3.1403,43.0672],[-3.141,43.0687],[-3.149,43.0693],[-3.1582,43.074],[-3.1495,43.0812],[-3.1476,43.0857],[-3.1339,43.0972],[-3.1415,43.1106],[-3.148,43.1083],[-3.1521,43.1041],[-3.1625,43.1089],[-3.1697,43.1096],[-3.1759,43.1131],[-3.1804,43.1163],[-3.1818,43.1209],[-3.1723,43.1297],[-3.1615,43.1432],[-3.1668,43.1469],[-3.1618,43.1543],[-3.1493,43.1609],[-3.1418,43.1611],[-3.141,43.165],[-3.1428,43.1683],[-3.1483,43.174],[-3.1542,43.177],[-3.1586,43.1781],[-3.163,43.1769],[-3.168,43.1786],[-3.1741,43.1774],[-3.1755,43.1755],[-3.1791,43.1752],[-3.1852,43.1694],[-3.1876,43.1692],[-3.1995,43.1712],[-3.2048,43.1745],[-3.2081,43.1794],[-3.211,43.1779],[-3.2131,43.1738],[-3.2185,43.1752],[-3.2241,43.1701],[-3.2235,43.1722],[-3.2266,43.1753],[-3.2334,43.179],[-3.2377,43.1862],[-3.2441,43.19],[-3.2533,43.1987],[-3.2549,43.1948],[-3.2621,43.1961],[-3.2663,43.1943],[-3.2778,43.1945],[-3.2781,43.1894],[-3.284,43.1884],[-3.2974,43.1825],[-3.3098,43.1721],[-3.3192,43.1711],[-3.3211,43.1692],[-3.3332,43.1655],[-3.3412,43.167],[-3.3502,43.1538],[-3.3598,43.1513],[-3.3705,43.1512],[-3.3705,43.1489],[-3.3833,43.1425],[-3.401,43.1373],[-3.4058,43.1378],[-3.4098,43.1342],[-3.4219,43.1323],[-3.4297,43.1337],[-3.4346,43.1317],[-3.4423,43.1328],[-3.4448,43.1315],[-3.4603,43.1363],[-3.4803,43.1361],[-3.487,43.1333],[-3.5021,43.1367],[-3.5063,43.1357],[-3.5436,43.1481],[-3.5612,43.1494],[-3.5853,43.1544],[-3.5996,43.1519],[-3.6035,43.1496],[-3.6049,43.156],[-3.6073,43.1582],[-3.6073,43.162],[-3.6124,43.1695],[-3.6229,43.1739],[-3.632,43.1731],[-3.6336,43.1756],[-3.641,43.1761],[-3.645,43.1793],[-3.651,43.181],[-3.6582,43.1776],[-3.6545,43.1709],[-3.661,43.1688],[-3.6622,43.1653],[-3.6668,43.1628],[-3.668,43.1576],[-3.6771,43.1545],[-3.6758,43.1539],[-3.6765,43.1511],[-3.6817,43.1466],[-3.6849,43.1406],[-3.6856,43.1372],[-3.6838,43.1363],[-3.6959,43.126],[-3.7039,43.1234],[-3.7029,43.1181],[-3.7047,43.1163],[-3.7143,43.114],[-3.7192,43.1084],[-3.7291,43.1044],[-3.7549,43.1005],[-3.7598,43.0921],[-3.757,43.085],[-3.7646,43.081],[-3.7676,43.0803],[-3.7758,43.0825],[-3.7804,43.0799],[-3.7903,43.0781],[-3.8011,43.0832],[-3.8063,43.0834],[-3.8102,43.0867],[-3.8153,43.0856],[-3.8186,43.0818],[-3.8233,43.0806],[-3.8358,43.0806],[-3.8444,43.0825],[-3.847,43.0844],[-3.8508,43.08],[-3.8507,43.0771],[-3.846,43.071],[-3.8318,43.0638],[-3.834,43.0629],[-3.8345,43.0581],[-3.8427,43.0513],[-3.8498,43.0484],[-3.8499,43.0402],[-3.8558,43.0393],[-3.8607,43.0431],[-3.8649,43.0422],[-3.8669,43.0438],[-3.8758,43.0436],[-3.8784,43.0416],[-3.8907,43.0418],[-3.8926,43.0397],[-3.8931,43.0356],[-3.9093,43.0161],[-3.9247,43.0104],[-3.945,43.0065],[-3.9561,42.998],[-3.9717,42.9747],[-3.9837,42.945],[-3.9869,42.9405],[-3.9871,42.9361],[-3.9906,42.9306],[-3.9868,42.9248],[-3.9767,42.9178],[-3.9733,42.9116],[-3.9434,42.9093],[-3.9296,42.9147],[-3.9364,42.9082],[-3.9376,42.9048],[-3.9335,42.8996],[-3.9287,42.9041],[-3.9264,42.9044],[-3.9234,42.9157],[-3.9182,42.9163],[-3.912,42.9213],[-3.9115,42.9234],[-3.8913,42.9255],[-3.8888,42.9299],[-3.8897,42.9351],[-3.8869,42.9423],[-3.8874,42.9488],[-3.8777,42.9478],[-3.8701,42.9497],[-3.8671,42.9548],[-3.8408,42.9406],[-3.8373,42.9347],[-3.8301,42.9286],[-3.8311,42.9214],[-3.8339,42.9181],[-3.8382,42.9167],[-3.8517,42.9195],[-3.8558,42.914],[-3.8583,42.9036],[-3.868,42.8989],[-3.8787,42.9012],[-3.8831,42.904],[-3.8846,42.9027],[-3.8922,42.9032],[-3.9029,42.9094],[-3.9087,42.915],[-3.9109,42.9111],[-3.8987,42.904],[-3.8934,42.8897],[-3.8955,42.891],[-3.8922,42.887],[-3.9021,42.8859],[-3.9086,42.8892],[-3.9103,42.8919],[-3.9163,42.8891],[-3.9209,42.8909],[-3.9241,42.8889],[-3.9079,42.887],[-3.8969,42.8816],[-3.8965,42.88],[-3.9051,42.8695],[-3.9123,42.8679],[-3.914,42.8602],[-3.9122,42.8589],[-3.8987,42.86],[-3.8962,42.8563],[-3.8874,42.8567],[-3.88,42.8511],[-3.8737,42.8526],[-3.8682,42.857],[-3.8736,42.8627],[-3.8735,42.8694],[-3.8711,42.874],[-3.8738,42.8748],[-3.8682,42.8853],[-3.8638,42.8896],[-3.8603,42.8871],[-3.834,42.8772],[-3.8262,42.871],[-3.8254,42.8686],[-3.8349,42.856],[-3.8341,42.8525],[-3.817,42.8365],[-3.8169,42.8297],[-3.8202,42.8267],[-3.8167,42.8194],[-3.8165,42.8104],[-3.8208,42.8065],[-3.8236,42.7989],[-3.8295,42.7989],[-3.8542,42.7876],[-3.862,42.7865],[-3.8687,42.7885],[-3.8944,42.8045],[-3.9005,42.7893],[-3.9097,42.7864],[-3.9088,42.777],[-3.911,42.7684],[-3.9265,42.7701],[-3.9306,42.7745],[-3.9488,42.7675],[-3.9466,42.7619],[-3.9565,42.7622],[-3.9657,42.7586],[-3.9789,42.7581],[-3.9816,42.7683],[-3.9879,42.7706],[-3.9907,42.771],[-3.9958,42.7684],[-3.9997,42.769],[-3.9959,42.7862],[-3.9976,42.7878],[-3.9965,42.799],[-3.9971,42.8032],[-4.0009,42.8098],[-4.0,42.8241],[-4.0016,42.8297],[-4.0036,42.8314],[-4.011,42.8304],[-4.0208,42.8193],[-4.0142,42.8064],[-4.0223,42.8069],[-4.0329,42.8013],[-4.0318,42.7936],[-4.0283,42.7903],[-4.0299,42.7883],[-4.0336,42.7866],[-4.0378,42.7908],[-4.0438,42.7888],[-4.0461,42.7858],[-4.0502,42.7798],[-4.0497,42.7729],[-4.0461,42.7668],[-4.0545,42.7634],[-4.0719,42.7607],[-4.0815,42.7616],[-4.0833,42.7686],[-4.0861,42.7713],[-4.0852,42.7723],[-4.0943,42.7734],[-4.0965,42.7803],[-4.1004,42.7846],[-4.0987,42.7862],[-4.0985,42.7913],[-4.1118,42.7943],[-4.1233,42.7944],[-4.1374,42.7905],[-4.1443,42.7913],[-4.1505,42.7894],[-4.174,42.8086],[-4.179,42.811],[-4.1825,42.8104],[-4.1859,42.8172],[-4.1843,42.8218],[-4.1791,42.8244],[-4.1787,42.8261],[-4.1652,42.8285],[-4.162,42.8357],[-4.1581,42.8375],[-4.1519,42.8353],[-4.1508,42.8315],[-4.1454,42.8289],[-4.1407,42.8291],[-4.1413,42.8303],[-4.1378,42.8339],[-4.1374,42.8393],[-4.1281,42.8463],[-4.1277,42.8531],[-4.1255,42.8541],[-4.126,42.8567],[-4.1397,42.8594],[-4.1415,42.8617],[-4.1451,42.8623],[-4.1488,42.8658],[-4.1439,42.8689],[-4.1501,42.8714],[-4.1692,42.859],[-4.1812,42.8586],[-4.186,42.8532],[-4.1925,42.8515],[-4.1992,42.8443],[-4.2092,42.8444],[-4.214,42.8473],[-4.2256,42.8587],[-4.2223,42.8661],[-4.2254,42.8846],[-4.2305,42.896],[-4.2308,42.9048],[-4.2249,42.9058],[-4.2225,42.9107],[-4.23,42.9131],[-4.237,42.9181],[-4.2392,42.931],[-4.2383,42.9542],[-4.2439,42.958],[-4.2626,42.9653],[-4.2733,42.9663],[-4.278,42.9653],[-4.2894,42.9691],[-4.2999,42.9662],[-4.3137,42.9695],[-4.348,42.9724],[-4.3734,42.995],[-4.3757,42.9997],[-4.3739,43.0022],[-4.3749,43.0063],[-4.3847,43.0144],[-4.3896,43.0255],[-4.393,43.0278],[-4.3981,43.035],[-4.4143,43.0417],[-4.4323,43.0457],[-4.4422,43.0553],[-4.4476,43.0584],[-4.4568,43.0569],[-4.4621,43.061],[-4.4711,43.0512],[-4.4759,43.0411],[-4.4753,43.0387],[-4.4939,43.0388],[-4.4957,43.0376],[-4.5212,43.0475],[-4.5594,43.0192],[-4.5741,43.027],[-4.5894,43.0253],[-4.6064,43.0354],[-4.6213,43.0257],[-4.6314,43.0235],[-4.6395,43.0164],[-4.6515,43.0209],[-4.6742,43.0213],[-4.6756,43.0232],[-4.6847,43.0263],[-4.7046,43.026],[-4.7098,43.0242],[-4.7136,43.0198],[-4.7215,43.018],[-4.725,43.0179],[-4.7311,43.022],[-4.7378,43.0209],[-4.7433,43.0268],[-4.7422,43.0324],[-4.7381,43.0399],[-4.7339,43.0431],[-4.7341,43.0477],[-4.7401,43.0532],[-4.7437,43.0555],[-4.7535,43.0567],[-4.7661,43.0553],[-4.7654,43.0672],[-4.7668,43.0747],[-4.7757,43.0802],[-4.7827,43.0815],[-4.7842,43.0838],[-4.7896,43.0844],[-4.7971,43.0882],[-4.802,43.0878],[-4.8089,43.0918],[-4.8166,43.0924],[-4.8183,43.0963],[-4.8218,43.0988],[-4.8335,43.1022],[-4.8362,43.1064],[-4.8363,43.1157],[-4.8439,43.1196],[-4.8464,43.124],[-4.8514,43.1259],[-4.8427,43.1333],[-4.8439,43.146],[-4.8386,43.147],[-4.8346,43.1575],[-4.8407,43.1624],[-4.8388,43.1667],[-4.8518,43.1731],[-4.8487,43.1777],[-4.841,43.1808],[-4.8396,43.1897],[-4.8455,43.1934],[-4.8494,43.193],[-4.856,43.2002],[-4.8563,43.2033],[-4.8608,43.2053],[-4.8602,43.209],[-4.8635,43.2119],[-4.8602,43.215],[-4.8613,43.2184],[-4.8703,43.2259],[-4.871,43.228],[-4.8845,43.2322],[-4.8868,43.2353],[-4.8948,43.2382],[-4.9074,43.2382],[-4.9155,43.2336],[-4.9206,43.2265],[-4.9322,43.2246],[-4.9426,43.2249],[-4.9461,43.2211],[-4.9514,43.2195],[-4.9521,43.2146],[-4.9606,43.212],[-4.9631,43.2127],[-4.9706,43.2017],[-4.9803,43.2003],[-4.9858,43.1932],[-4.9964,43.1853],[-4.9976,43.1703],[-5.002,43.1752],[-5.0149,43.1794],[-5.0215,43.1835],[-5.0316,43.1818],[-5.0409,43.1847],[-5.0537,43.1814],[-5.0595,43.1743],[-5.0667,43.1748],[-5.0766,43.179],[-5.0779,43.1733],[-5.0759,43.1713],[-5.0754,43.1669],[-5.0776,43.166],[-5.079,43.1598],[-5.0829,43.1583],[-5.0865,43.1537],[-5.0868,43.1475],[-5.0939,43.143],[-5.0915,43.1323],[-5.0939,43.1235],[-5.0969,43.1213],[-5.0993,43.1158],[-5.0957,43.1077],[-5.1017,43.1018],[-5.1239,43.1006],[-5.1407,43.1029],[-5.1408,43.1051],[-5.1478,43.1151],[-5.1535,43.111],[-5.162,43.1101],[-5.1679,43.1024],[-5.1754,43.1],[-5.1886,43.0998],[-5.192,43.0949],[-5.1982,43.0932],[-5.2012,43.0902],[-5.2068,43.0924],[-5.2097,43.0869],[-5.2166,43.0845],[-5.2202,43.0837],[-5.226,43.0855],[-5.2319,43.0844],[-5.2403,43.0886],[-5.2494,43.0891],[-5.2685,43.0876],[-5.2782,43.0833],[-5.2821,43.0774],[-5.3011,43.08],[-5.3042,43.0825],[-5.3115,43.0842],[-5.3172,43.0827],[-5.3205,43.0793],[-5.3269,43.0796],[-5.3414,43.0838],[-5.3385,43.0909],[-5.3437,43.0939],[-5.3691,43.0946],[-5.3778,43.0883],[-5.3831,43.0872],[-5.387,43.0615],[-5.3905,43.0493],[-5.3986,43.0475],[-5.4059,43.0499],[-5.4127,43.0494],[-5.421,43.0528],[-5.4339,43.0527],[-5.4482,43.0554],[-5.4668,43.0506],[-5.4756,43.0555],[-5.4785,43.0549],[-5.4807,43.0536],[-5.4815,43.0408],[-5.486,43.0332],[-5.491,43.0296],[-5.4938,43.0212],[-5.4968,43.0219],[-5.5063,43.0286],[-5.5269,43.0264],[-5.5289,43.0258],[-5.5304,43.0224],[-5.5402,43.0184],[-5.5558,43.0203],[-5.5583,43.0224],[-5.5698,43.0221],[-5.5748,43.0321],[-5.5913,43.0343],[-5.5955,43.0333],[-5.604,43.0358],[-5.6091,43.0341],[-5.6136,43.0354],[-5.6263,43.0338],[-5.6367,43.035],[-5.6388,43.0383],[-5.6431,43.0378],[-5.6504,43.0444],[-5.6595,43.0455],[-5.6603,43.0471],[-5.6654,43.0479],[-5.6723,43.0524],[-5.677,43.0521],[-5.6884,43.0569],[-5.6931,43.0563],[-5.7213,43.0426],[-5.7283,43.0425],[-5.7291,43.0377],[-5.7348,43.033],[-5.7366,43.0252],[-5.7354,43.023],[-5.7402,43.0205],[-5.7441,43.0205],[-5.7483,43.0173],[-5.7502,43.0125],[-5.7492,43.009],[-5.7501,43.0061],[-5.7593,42.9989],[-5.7606,42.9901],[-5.7664,42.9859],[-5.764,42.982],[-5.7635,42.9755],[-5.7603,42.9727],[-5.7661,42.9689],[-5.779,42.967],[-5.7902,42.968],[-5.8009,42.9652],[-5.804,42.9626],[-5.8093,42.9657],[-5.8237,42.9677],[-5.8345,42.9656],[-5.8397,42.9662],[-5.843,42.9643],[-5.85,42.9675],[-5.8505,42.9701],[-5.8542,42.9727],[-5.855,42.9752],[-5.8619,42.9796],[-5.8617,42.9817],[-5.8733,42.9794],[-5.8797,42.9811],[-5.8885,42.9792],[-5.892,42.985],[-5.8919,42.9892],[-5.8872,42.9941],[-5.9079,42.9906],[-5.9128,42.9924],[-5.9133,42.9977],[-5.9183,43.0019],[-5.9254,43.004],[-5.9253,43.0058],[-5.9314,43.0059],[-5.9334,43.0107],[-5.9565,43.0176],[-5.9584,43.0259],[-5.9623,43.0332],[-5.9604,43.0337],[-5.9669,43.0365],[-5.9697,43.0408],[-5.9645,43.046],[-5.9622,43.0529],[-5.966,43.0582],[-5.9705,43.0575],[-5.9735,43.0594],[-5.9738,43.0653],[-5.9771,43.0655],[-5.979,43.064],[-5.9889,43.0672],[-5.9963,43.0579],[-6.0088,43.0577],[-6.0169,43.0534],[-6.0209,43.0538],[-6.0297,43.0571],[-6.0379,43.063],[-6.0497,43.0655],[-6.0521,43.0682],[-6.0613,43.0649],[-6.0694,43.0664],[-6.0736,43.0717],[-6.0788,43.0732],[-6.0813,43.0759],[-6.084,43.0699],[-6.0919,43.0669],[-6.0903,43.0582],[-6.095,43.0489],[-6.09,43.0434],[-6.0898,43.0382],[-6.0951,43.0345],[-6.096,43.0313],[-6.1014,43.0319],[-6.1061,43.0294],[-6.1125,43.0294],[-6.1204,43.0243],[-6.1367,43.021],[-6.1395,43.025],[-6.1468,43.0301],[-6.1484,43.0332],[-6.1593,43.0356],[-6.1626,43.033],[-6.1674,43.0424],[-6.1711,43.043],[-6.1784,43.0478],[-6.1876,43.0493],[-6.1908,43.0446],[-6.1951,43.0427],[-6.2156,43.0472],[-6.219,43.0439],[-6.219,43.0394],[-6.2227,43.0352],[-6.2223,43.0294],[-6.2263,43.0261],[-6.2257,43.0236],[-6.2298,43.023],[-6.2268,43.0089],[-6.2389,43.0146],[-6.2427,43.0135],[-6.2637,43.0161],[-6.269,43.0215],[-6.2702,43.0255],[-6.2736,43.0262],[-6.2852,43.0364],[-6.2904,43.0344],[-6.2952,43.0269],[-6.3113,43.0289],[-6.3137,43.0313],[-6.3265,43.0313],[-6.3295,43.0375],[-6.3299,43.043],[-6.3332,43.0465],[-6.3382,43.0459],[-6.3407,43.0492],[-6.3489,43.05],[-6.3509,43.0531],[-6.3579,43.0567],[-6.3591,43.0596],[-6.3634,43.0573],[-6.362,43.0542],[-6.3646,43.0521],[-6.3647,43.0499],[-6.374,43.0463],[-6.3735,43.0411],[-6.3901,43.0405],[-6.397,43.0383],[-6.395,43.0327],[-6.3917,43.0313],[-6.3908,43.0258],[-6.3935,43.0222],[-6.392,43.0218],[-6.3944,43.0166],[-6.4024,43.0162],[-6.408,43.0185],[-6.4111,43.0169],[-6.4126,43.0152],[-6.411,43.012],[-6.4122,43.0075],[-6.4102,43.0009],[-6.4074,42.9994],[-6.4134,42.9939],[-6.4185,42.9921],[-6.4241,42.9876],[-6.4276,42.9876],[-6.4371,42.993],[-6.4464,42.9822],[-6.459,42.9836],[-6.4659,42.9864],[-6.4709,42.9917],[-6.4781,42.9912],[-6.4783,42.9801],[-6.472,42.9766],[-6.4747,42.9706],[-6.473,42.9678],[-6.4685,42.9661],[-6.4624,42.9677],[-6.4518,42.966],[-6.4424,42.9669],[-6.4336,42.9642],[-6.4416,42.9473],[-6.4331,42.9398],[-6.4416,42.9396],[-6.4549,42.9349],[-6.4786,42.9336],[-6.4861,42.929],[-6.4898,42.9202],[-6.5001,42.9228],[-6.5106,42.9287],[-6.5232,42.9234],[-6.5345,42.9222],[-6.5383,42.9197],[-6.5412,42.9125],[-6.5466,42.9122],[-6.5691,42.9148],[-6.5712,42.9171],[-6.5794,42.9185],[-6.5903,42.9167],[-6.5979,42.9186],[-6.6065,42.9161],[-6.6129,42.9246],[-6.6286,42.9195],[-6.6322,42.9232],[-6.6388,42.9255],[-6.6467,42.9238],[-6.6569,42.9246],[-6.6606,42.9228],[-6.6672,42.9245],[-6.6899,42.9225],[-6.697,42.9185],[-6.7128,42.9151],[-6.7232,42.9174],[-6.7345,42.9077],[-6.7406,42.8995],[-6.7492,42.8941],[-6.7567,42.8831],[-6.7605,42.884],[-6.7737,42.8828],[-6.7734,42.8867],[-6.7679,42.8903],[-6.7683,42.8955],[-6.7707,42.8986],[-6.7898,42.9045],[-6.801,42.9102],[-6.8117,42.9113],[-6.8242,42.9151],[-6.842,42.9064],[-6.8356,42.9043],[-6.8275,42.8891],[-6.8274,42.8802],[-6.8252,42.8769],[-6.8181,42.8724],[-6.8141,42.8717],[-6.8205,42.8679],[-6.8307,42.8712],[-6.8346,42.8733],[-6.8371,42.8774],[-6.8403,42.8782],[-6.8337,42.8821],[-6.8713,42.8738],[-6.8595,42.8485],[-6.8531,42.8387],[-6.8482,42.8334],[-6.8413,42.8324],[-6.8441,42.8281],[-6.8403,42.8234],[-6.8514,42.8188],[-6.8544,42.8106],[-6.858,42.81],[-6.8673,42.8035],[-6.8693,42.8008],[-6.8687,42.7992],[-6.8645,42.7974],[-6.864,42.7929],[-6.8674,42.7872],[-6.8758,42.7825],[-6.8799,42.7823],[-6.8908,42.7773],[-6.8969,42.7719],[-6.8978,42.7668],[-6.8962,42.7651],[-6.8997,42.7649],[-6.9015,42.7636],[-6.9015,42.7613],[-6.9356,42.7409],[-6.9469,42.7415],[-6.9533,42.7523],[-6.9565,42.7556],[-6.9595,42.755],[-6.9678,42.7475],[-6.9659,42.7423],[-6.9667,42.7387],[-6.9728,42.7379],[-6.969,42.7296],[-6.9729,42.725],[-6.9837,42.7187],[-6.9902,42.7266],[-6.9956,42.7255],[-6.9994,42.727],[-7.0024,42.724],[-7.0109,42.7237],[-7.0216,42.7143],[-7.0199,42.7103],[-7.0251,42.7126],[-7.0277,42.7114],[-7.0365,42.7003],[-7.0452,42.6948],[-7.0342,42.6843],[-7.0347,42.6824],[-7.0318,42.6756],[-7.0209,42.6688],[-7.0206,42.6663],[-7.0155,42.6646],[-7.0174,42.6611],[-7.0126,42.6578],[-7.0204,42.6547],[-7.0215,42.6519],[-7.01,42.6498],[-7.0044,42.6429],[-7.0131,42.6418],[-7.0178,42.6452],[-7.029,42.6394],[-7.0331,42.6392],[-7.0381,42.636],[-7.0419,42.6361],[-7.047,42.6327],[-7.0477,42.6255],[-7.0459,42.6221],[-7.0477,42.6127],[-7.0455,42.6042],[-7.0502,42.5979],[-7.0436,42.5897],[-7.0353,42.5882],[-7.0336,42.5841],[-7.0488,42.5693],[-7.0562,42.5665],[-7.0576,42.5637],[-7.0559,42.559],[-7.0571,42.5576],[-7.0628,42.5533],[-7.0695,42.554],[-7.0664,42.5525],[-7.0639,42.5486],[-7.0708,42.5377],[-7.0674,42.5361],[-7.0644,42.538],[-7.0617,42.5373],[-7.0594,42.5306],[-7.0617,42.5254],[-7.0642,42.5242],[-7.0687,42.5176],[-7.0712,42.5105],[-7.0771,42.508],[-7.0738,42.5067],[-7.0599,42.5066],[-7.0519,42.5086],[-7.0458,42.5078],[-7.0326,42.5043],[-7.0287,42.4979],[-7.0196,42.5016],[-7.001,42.5057],[-7.0008,42.502],[-6.9967,42.4992],[-6.9785,42.4933],[-6.9736,42.494],[-6.966,42.512],[-6.9601,42.5178],[-6.9371,42.5189],[-6.9322,42.5205],[-6.9251,42.5194],[-6.9148,42.5105],[-6.9165,42.5084],[-6.9133,42.5071],[-6.9063,42.5079],[-6.876,42.4983],[-6.8606,42.4891],[-6.8492,42.4867],[-6.841,42.489],[-6.837,42.4955],[-6.8331,42.4922],[-6.8267,42.493],[-6.8228,42.4909],[-6.8255,42.4857],[-6.8186,42.4819],[-6.8147,42.4739],[-6.8084,42.4691],[-6.8115,42.4612],[-6.8228,42.4529],[-6.8201,42.4395],[-6.8218,42.4333],[-6.8202,42.4308],[-6.8143,42.4274],[-6.8248,42.4259],[-6.821,42.4214],[-6.8289,42.4168],[-6.8313,42.4084],[-6.8381,42.4092],[-6.8435,42.4058],[-6.8423,42.4036],[-6.8381,42.4017],[-6.8336,42.3955],[-6.8235,42.3919],[-6.8208,42.3856],[-6.8096,42.3847],[-6.8023,42.3864],[-6.8019,42.3837],[-6.7959,42.382],[-6.788,42.3826],[-6.7786,42.381],[-6.7742,42.3788],[-6.7689,42.373],[-6.7665,42.365],[-6.7578,42.3676],[-6.7496,42.3629],[-6.734,42.3591],[-6.739,42.3449],[-6.7382,42.3401],[-6.7405,42.3287],[-6.7369,42.3252],[-6.7343,42.3187],[-6.7394,42.3217],[-6.7364,42.3186],[-6.7362,42.3111],[-6.7432,42.3033],[-6.7411,42.2987],[-6.7505,42.291],[-6.7554,42.2828],[-6.765,42.2727],[-6.767,42.2575],[-6.7713,42.2547],[-6.7741,42.2542],[-6.7759,42.2556],[-6.7908,42.253],[-6.7942,42.2495],[-6.7932,42.2469],[-6.7961,42.2424],[-6.8011,42.2412],[-6.8031,42.239],[-6.8014,42.234],[-6.797,42.229],[-6.7944,42.2281],[-6.7961,42.2218],[-6.792,42.2178],[-6.787,42.2159],[-6.7945,42.2123],[-6.7966,42.209],[-6.8025,42.2187],[-6.8166,42.2209],[-6.8302,42.2263],[-6.8436,42.2283],[-6.8556,42.2269],[-6.8866,42.2145],[-6.8927,42.2077],[-6.8882,42.2023],[-6.9008,42.1895],[-6.9105,42.1881],[-6.9146,42.189],[-6.9386,42.1768],[-6.9438,42.1719],[-6.941,42.1686],[-6.9418,42.1613],[-6.9456,42.1444],[-6.9446,42.1424],[-6.9478,42.1391],[-6.9487,42.1356],[-6.9533,42.1327],[-6.9555,42.1293],[-6.9634,42.1285],[-6.9741,42.124],[-6.9812,42.1229],[-6.9862,42.124],[-6.9896,42.1214],[-6.9885,42.118],[-6.9908,42.1153],[-6.9885,42.1119],[-6.989,42.1075],[-6.9919,42.1052],[-6.9897,42.1015],[-6.9926,42.0989],[-6.9946,42.0996],[-6.995,42.1016],[-6.9968,42.1012],[-7.0025,42.0971],[-7.0024,42.0916],[-6.9999,42.0898],[-7.0031,42.0882],[-7.0021,42.0846],[-7.0128,42.085],[-7.0177,42.0811],[-7.0197,42.0833],[-7.0336,42.0742],[-7.034,42.0716],[-7.031,42.0633],[-7.0221,42.0609],[-7.0118,42.0524],[-6.9947,42.0514],[-6.9748,42.0552],[-6.9731,42.0391],[-6.9647,42.0337],[-6.964,42.0305],[-6.9611,42.0279],[-6.9664,42.0238],[-6.9705,42.014],[-6.9763,42.009],[-6.9795,42.0002],[-6.9871,41.997],[-6.9865,41.9948],[-6.9911,41.9883],[-6.9917,41.9861],[-6.9864,41.9787],[-6.9858,41.971],[-6.983,41.9734],[-6.9794,41.9738],[-6.9578,41.9689],[-6.9503,41.9538],[-6.9472,41.951],[-6.9443,41.9447],[-6.9415,41.9439],[-6.9331,41.9464],[-6.9259,41.9439],[-6.9115,41.9441],[-6.892,41.9398],[-6.8851,41.9403],[-6.8747,41.9438],[-6.8695,41.9485],[-6.8488,41.9424],[-6.8337,41.9443],[-6.8305,41.9435],[-6.8216,41.946],[-6.81,41.9695],[-6.8113,41.9925],[-6.7977,41.9886],[-6.7783,41.9876],[-6.7687,41.9839],[-6.767,41.9745],[-6.7506,41.9434],[-6.7264,41.9371],[-6.7145,41.9386],[-6.7146,41.9375],[-6.6993,41.9333],[-6.6356,41.9422],[-6.6212,41.94],[-6.6171,41.9412],[-6.6134,41.9466],[-6.6088,41.9484],[-6.5994,41.9482],[-6.5891,41.9629],[-6.5885,41.9678],[-6.5832,41.9654],[-6.5491,41.9445],[-6.5458,41.9359],[-6.546,41.9309],[-6.5499,41.9293],[-6.5476,41.9278],[-6.5502,41.9261],[-6.5488,41.9234],[-6.5577,41.9104],[-6.5569,41.9074],[-6.5613,41.8959],[-6.5659,41.894],[-6.5712,41.8835],[-6.5378,41.8767],[-6.5176,41.8751],[-6.5155,41.8717],[-6.5196,41.8652],[-6.5257,41.8601],[-6.5224,41.8541],[-6.5275,41.8498],[-6.5285,41.8472],[-6.526,41.843],[-6.5301,41.84],[-6.5325,41.8347],[-6.5287,41.8308],[-6.5304,41.8288],[-6.5284,41.8282],[-6.5316,41.8226],[-6.5274,41.8208],[-6.5359,41.8181],[-6.5331,41.8156],[-6.5333,41.814],[-6.5387,41.8127],[-6.537,41.8078],[-6.5428,41.8056],[-6.5391,41.8013],[-6.5434,41.8003],[-6.543,41.7964],[-6.5471,41.795],[-6.5435,41.7892],[-6.5438,41.7839],[-6.5472,41.78],[-6.5435,41.7785],[-6.5498,41.7767],[-6.5502,41.7727],[-6.5551,41.7672],[-6.5548,41.7582],[-6.5583,41.7534],[-6.5648,41.7515],[-6.569,41.7438],[-6.5666,41.7417],[-6.5614,41.7418],[-6.5598,41.7387],[-6.556,41.7375],[-6.5577,41.7343],[-6.5553,41.7252],[-6.5516,41.7265],[-6.5488,41.7255],[-6.555,41.721],[-6.5501,41.7186],[-6.5537,41.7168],[-6.5487,41.7143],[-6.5483,41.7128],[-6.5502,41.7115],[-6.5461,41.7078],[-6.5471,41.7042],[-6.5432,41.704],[-6.5425,41.7012],[-6.5455,41.6985],[-6.5495,41.7023],[-6.5522,41.7023],[-6.555,41.6986],[-6.553,41.6956],[-6.5538,41.6933],[-6.5483,41.6856],[-6.5343,41.6766],[-6.5276,41.6753],[-6.519,41.6689],[-6.5125,41.6612],[-6.4996,41.6571],[-6.4887,41.6575],[-6.4694,41.6662],[-6.4574,41.6666],[-6.4525,41.6754],[-6.4524,41.6809],[-6.4443,41.6848],[-6.4405,41.6844],[-6.4363,41.6807],[-6.4343,41.6821],[-6.4256,41.6794],[-6.4119,41.6786],[-6.4101,41.6804],[-6.406,41.6809],[-6.396,41.6772],[-6.3745,41.6737],[-6.3547,41.6764],[-6.3023,41.6618],[-6.283,41.6524],[-6.2545,41.633],[-6.2358,41.6071],[-6.2301,41.6037],[-6.2087,41.5991],[-6.2015,41.5946],[-6.197,41.5895],[-6.196,41.5846],[-6.1892,41.5748],[-6.2013,41.5682],[-6.2118,41.5592],[-6.2174,41.5505],[-6.2175,41.5428],[-6.2267,41.5346],[-6.2369,41.5214],[-6.2427,41.5192],[-6.2458,41.5158],[-6.2578,41.5141],[-6.258,41.5119],[-6.2511,41.5002],[-6.2558,41.4971],[-6.2658,41.4982],[-6.268,41.4943],[-6.2621,41.4869],[-6.2687,41.4872],[-6.284,41.479],[-6.286,41.4665],[-6.2962,41.4599],[-6.3054,41.4497],[-6.3049,41.4464],[-6.2949,41.4363],[-6.3001,41.4287],[-6.3099,41.4194],[-6.319,41.4155],[-6.3267,41.4163],[-6.3333,41.4103],[-6.3324,41.4052],[-6.3201,41.4009],[-6.3172,41.3971],[-6.3176,41.3939],[-6.3154,41.3901],[-6.3177,41.3857],[-6.326,41.3871],[-6.3432,41.3798],[-6.3527,41.3782],[-6.3576,41.3799],[-6.364,41.3856],[-6.3666,41.3892],[-6.3667,41.3939],[-6.3712,41.3924],[-6.377,41.3878],[-6.3814,41.388],[-6.3899,41.3854],[-6.3939,41.3778],[-6.394,41.3708],[-6.3871,41.3633],[-6.3805,41.3642],[-6.3777,41.3629],[-6.3772,41.3601],[-6.3796,41.3572],[-6.3921,41.3502],[-6.4078,41.35],[-6.4168,41.3475],[-6.4272,41.3343],[-6.4187,41.3267],[-6.4348,41.3193],[-6.4393,41.3123],[-6.4376,41.3057],[-6.4516,41.2984],[-6.4596,41.298],[-6.4692,41.3011],[-6.4787,41.2947],[-6.4841,41.293],[-6.49,41.2887],[-6.4916,41.2845],[-6.4788,41.277],[-6.4787,41.275],[-6.497,41.2656],[-6.5118,41.2642],[-6.516,41.2733],[-6.5218,41.276],[-6.5305,41.2666],[-6.5467,41.2581],[-6.5519,41.2453],[-6.5667,41.2431],[-6.5734,41.2388],[-6.5813,41.2395],[-6.5849,41.2418],[-6.5865,41.2461],[-6.5861,41.2518],[-6.5914,41.2555],[-6.5946,41.2536],[-6.5966,41.2459],[-6.5991,41.2442],[-6.6033,41.245],[-6.6053,41.2484],[-6.6089,41.2497],[-6.6199,41.2477],[-6.6295,41.2426],[-6.643,41.2483],[-6.6478,41.2476],[-6.6528,41.2356],[-6.6641,41.2312],[-6.6705,41.2239],[-6.6804,41.2186],[-6.6851,41.212],[-6.6919,41.2083],[-6.6886,41.2044],[-6.6891,41.1992],[-6.6923,41.1939],[-6.6992,41.1928],[-6.6965,41.1864],[-6.7013,41.1804],[-6.7063,41.179],[-6.7091,41.1736],[-6.7147,41.1696],[-6.7306,41.1623],[-6.7384,41.154],[-6.739,41.1506],[-6.7459,41.1468],[-6.7519,41.1408],[-6.7674,41.1352],[-6.7704,41.1308],[-6.7703,41.1244],[-6.7618,41.115],[-6.754,41.1028],[-6.7572,41.098],[-6.7619,41.0955],[-6.7639,41.0908],[-6.7709,41.0861],[-6.7739,41.0802],[-6.7724,41.0768],[-6.7733,41.0747],[-6.779,41.0716],[-6.78,41.0673],[-6.7869,41.0633],[-6.7904,41.0567],[-6.8092,41.0439],[-6.8072,41.039],[-6.8084,41.0365],[-6.836,41.0282],[-6.866,41.0268],[-6.8786,41.0284],[-6.9151,41.0389],[-6.9301,41.0301],[-6.9293,41.0268],[-6.9312,41.0168],[-6.9244,41.0115],[-6.9216,41.0033],[-6.9086,40.9989],[-6.9038,40.9894],[-6.892,40.9815],[-6.8868,40.9714],[-6.8764,40.9612],[-6.8685,40.9578],[-6.8602,40.9489],[-6.8573,40.9398],[-6.8537,40.9356],[-6.8549,40.931],[-6.849,40.9246],[-6.8498,40.9223],[-6.8481,40.9182],[-6.8498,40.9143],[-6.8499,40.9066],[-6.8485,40.9008],[-6.8388,40.8895],[-6.8301,40.8848],[-6.8231,40.8844],[-6.819,40.8807],[-6.8088,40.882],[-6.8066,40.8718],[-6.8046,40.8692],[-6.8054,40.8654],[-6.8019,40.861],[-6.8041,40.8566],[-6.8003,40.8483],[-6.8022,40.8451],[-6.8078,40.8461],[-6.8125,40.8419],[-6.8226,40.8431],[-6.8242,40.8452],[-6.8261,40.8432],[-6.8262,40.8404],[-6.821,40.8365],[-6.8209,40.8333],[-6.8231,40.8338],[-6.823,40.8278],[-6.8244,40.8262],[-6.8224,40.8233],[-6.8231,40.8193],[-6.8176,40.8085],[-6.817,40.8012],[-6.8194,40.7977],[-6.8196,40.7928],[-6.8248,40.7854],[-6.828,40.7772],[-6.8258,40.7683],[-6.8312,40.7526],[-6.8287,40.7442],[-6.8306,40.7426],[-6.8282,40.7381],[-6.8249,40.737],[-6.8246,40.7297],[-6.8175,40.7256],[-6.811,40.7173],[-6.8134,40.7085],[-6.8107,40.7008],[-6.8071,40.6979],[-6.8062,40.695],[-6.8075,40.6937],[-6.8056,40.693],[-6.8063,40.6908],[-6.8025,40.6803],[-6.8055,40.6687],[-6.7939,40.6617],[-6.7995,40.6544],[-6.8079,40.6295],[-6.8209,40.6101],[-6.8376,40.5942],[-6.837,40.5829],[-6.8448,40.5659],[-6.8304,40.5631],[-6.8208,40.5576],[-6.8053,40.5551],[-6.8044,40.5509],[-6.8008,40.5506],[-6.8052,40.5406],[-6.8049,40.536],[-6.804,40.5312],[-6.7971,40.5229],[-6.795,40.5119],[-6.8106,40.5051],[-6.8147,40.5016],[-6.8179,40.4951],[-6.8174,40.4903],[-6.8227,40.4837],[-6.8353,40.4754],[-6.8497,40.4526],[-6.8414,40.4227],[-6.8348,40.4082],[-6.8214,40.3956],[-6.8127,40.3913],[-6.8093,40.3869],[-6.8096,40.3844],[-6.8038,40.3818],[-6.7941,40.3726],[-6.7844,40.37],[-6.781,40.3647],[-6.7895,40.3604],[-6.7935,40.3561],[-6.7904,40.3347],[-6.7942,40.3288],[-6.804,40.3244],[-6.817,40.3252],[-6.8244,40.3226],[-6.8283,40.3178],[-6.8315,40.3178],[-6.8348,40.3144],[-6.84,40.3138],[-6.8477,40.3069],[-6.8614,40.2996],[-6.8639,40.2962],[-6.8644,40.2842],[-6.8622,40.2792],[-6.8648,40.2704],[-6.8468,40.2544],[-6.8399,40.2556],[-6.8372,40.2486],[-6.8345,40.2476],[-6.8227,40.2482],[-6.8234,40.246],[-6.8212,40.2447],[-6.8106,40.2444],[-6.8067,40.2415],[-6.8001,40.242],[-6.8022,40.2496],[-6.7835,40.2494],[-6.7781,40.2455],[-6.7556,40.2389],[-6.7556,40.2463],[-6.7514,40.2502],[-6.7414,40.2562],[-6.7352,40.2572],[-6.7267,40.265],[-6.7182,40.2692],[-6.7115,40.2669],[-6.7097,40.2602],[-6.7032,40.2511],[-6.6901,40.2427],[-6.6885,40.2466],[-6.6778,40.251],[-6.6777,40.258],[-6.6718,40.2632],[-6.64,40.2689],[-6.6346,40.2647],[-6.6252,40.2666],[-6.6148,40.2661],[-6.5974,40.2716],[-6.587,40.2707],[-6.5831,40.2748],[-6.5713,40.2792],[-6.5684,40.2831],[-6.5562,40.2908],[-6.5596,40.2958],[-6.556,40.3042],[-6.5567,40.3064],[-6.5647,40.3146],[-6.563,40.3168],[-6.5604,40.329],[-6.5363,40.3472],[-6.4934,40.362],[-6.4858,40.3632],[-6.4747,40.3701],[-6.4675,40.3723],[-6.4489,40.3709],[-6.4383,40.3728],[-6.4411,40.378],[-6.4396,40.3816],[-6.4244,40.3915],[-6.4188,40.3993],[-6.4078,40.402],[-6.3918,40.399],[-6.3832,40.4007],[-6.376,40.4002],[-6.3714,40.4019],[-6.3619,40.4071],[-6.363,40.4117],[-6.3615,40.4154],[-6.3658,40.4173],[-6.3656,40.4224],[-6.3459,40.4371],[-6.3446,40.4428],[-6.3341,40.4477],[-6.3253,40.4477],[-6.3224,40.4505],[-6.2944,40.452],[-6.2878,40.4576],[-6.2753,40.4585],[-6.271,40.4609],[-6.2684,40.4676],[-6.2638,40.4716],[-6.255,40.47],[-6.241,40.4852],[-6.2305,40.4866],[-6.2132,40.4828],[-6.2001,40.4824],[-6.1912,40.4722],[-6.1877,40.4713],[-6.1862,40.4658],[-6.1804,40.4622],[-6.1692,40.4581],[-6.1571,40.4566],[-6.1525,40.4526],[-6.1559,40.4478],[-6.1475,40.4385],[-6.147,40.4361],[-6.1323,40.4369],[-6.1202,40.4427],[-6.1161,40.4416],[-6.117,40.4353],[-6.1193,40.4351],[-6.1242,40.4305],[-6.1295,40.4208],[-6.1189,40.4193],[-6.1163,40.4147],[-6.1042,40.415],[-6.0979,40.4134],[-6.093,40.4114],[-6.0919,40.408],[-6.0858,40.4077],[-6.0829,40.403],[-6.0752,40.4034],[-6.0739,40.4008],[-6.0682,40.3993],[-6.065,40.3966],[-6.0666,40.395],[-6.0742,40.3958],[-6.0767,40.3907],[-6.0834,40.3924],[-6.0852,40.3905],[-6.0822,40.3879],[-6.0722,40.387],[-6.0763,40.3813],[-6.0836,40.3802],[-6.0863,40.378],[-6.0864,40.375],[-6.0813,40.3731],[-6.0824,40.3632],[-6.0856,40.3609],[-6.0925,40.3617],[-6.0973,40.3564],[-6.103,40.3586],[-6.1057,40.3568],[-6.0677,40.3475],[-6.0522,40.3416],[-6.0457,40.3429],[-6.0277,40.3395],[-6.016,40.3403],[-6.0196,40.3226],[-6.0164,40.3165],[-6.0103,40.3123],[-6.0053,40.3054],[-5.9921,40.299],[-5.9789,40.297],[-5.9756,40.2932],[-5.9685,40.2896],[-5.9649,40.2915],[-5.9417,40.2844],[-5.9378,40.2811],[-5.9208,40.2809],[-5.9172,40.2777],[-5.914,40.2871],[-5.9078,40.2904],[-5.8923,40.3119],[-5.8935,40.3186],[-5.885,40.3261],[-5.8741,40.3266],[-5.8676,40.3314],[-5.8578,40.3344],[-5.855,40.3384],[-5.8523,40.337],[-5.8499,40.3382],[-5.8537,40.3315],[-5.8471,40.328],[-5.8283,40.3412],[-5.8217,40.3484],[-5.8165,40.3511],[-5.807,40.3503],[-5.7991,40.3537],[-5.795,40.3512],[-5.7901,40.3335],[-5.7845,40.3235],[-5.782,40.3125],[-5.7893,40.3065],[-5.7933,40.3003],[-5.8027,40.2976],[-5.7931,40.2867],[-5.765,40.2808],[-5.7579,40.2825],[-5.7444,40.2889],[-5.7376,40.2941],[-5.7342,40.2925],[-5.7281,40.2932],[-5.7229,40.2914],[-5.708,40.2916],[-5.6996,40.2888],[-5.6927,40.2921],[-5.6824,40.2837],[-5.6567,40.2704],[-5.66,40.2578],[-5.6492,40.2497],[-5.6267,40.2478],[-5.622,40.2459],[-5.6208,40.2408],[-5.6165,40.2363],[-5.6141,40.2358],[-5.6154,40.2282],[-5.6189,40.2239],[-5.6145,40.2183],[-5.61,40.2155],[-5.5933,40.2161],[-5.5682,40.2064],[-5.5636,40.2026],[-5.5519,40.2005],[-5.5481,40.1972],[-5.5411,40.1959],[-5.5365,40.1966],[-5.531,40.1947],[-5.521,40.1961],[-5.5097,40.2019],[-5.5056,40.2022],[-5.5,40.2008],[-5.4991,40.1989],[-5.4869,40.2051],[-5.4709,40.2079],[-5.4681,40.2242],[-5.4523,40.2271],[-5.4398,40.2336],[-5.4291,40.2526],[-5.4118,40.2553],[-5.3956,40.2503],[-5.3787,40.2579],[-5.3642,40.257],[-5.3578,40.263],[-5.349,40.2652],[-5.3437,40.2644],[-5.3584,40.2319],[-5.3587,40.2273],[-5.3697,40.2183],[-5.3695,40.211],[-5.3641,40.2026],[-5.3682,40.1991],[-5.3665,40.196],[-5.367,40.1886],[-5.3655,40.1861],[-5.3666,40.1835],[-5.3647,40.1819],[-5.3644,40.1786],[-5.3679,40.163],[-5.367,40.1604],[-5.3602,40.1569],[-5.3602,40.1543],[-5.3562,40.1517],[-5.3568,40.1484],[-5.3459,40.1335],[-5.3456,40.1292],[-5.337,40.1242],[-5.336,40.1158],[-5.3294,40.1138],[-5.3188,40.1075],[-5.3024,40.1072],[-5.2968,40.1101],[-5.2788,40.1092],[-5.2672,40.1111],[-5.2607,40.1079],[-5.2153,40.1078],[-5.2104,40.1053],[-5.2114,40.0917],[-5.2077,40.0896],[-5.2067,40.0856],[-5.2035,40.0834],[-5.1998,40.0825],[-5.1923,40.0835],[-5.1845,40.0881],[-5.1716,40.0848],[-5.1547,40.0928],[-5.1492,40.0908],[-5.1414,40.0918],[-5.14,40.0971],[-5.128,40.102],[-5.1054,40.1187],[-5.1011,40.1272],[-5.0953,40.1277],[-5.091,40.1236],[-5.0878,40.1243],[-5.0858,40.1266],[-5.0855,40.135],[-5.0774,40.1365],[-5.0783,40.1411],[-5.0731,40.1443],[-5.067,40.1509],[-5.0628,40.1516],[-5.0561,40.149],[-5.0514,40.1516],[-5.0421,40.1511],[-5.0339,40.1567],[-5.0185,40.1591],[-5.017,40.1458],[-5.0136,40.1435],[-5.0067,40.1299],[-5.0077,40.1217],[-5.0133,40.1111],[-5.0058,40.1097],[-4.9892,40.1159],[-4.9824,40.1154],[-4.9709,40.1198],[-4.9545,40.1211],[-4.9589,40.1261],[-4.9554,40.1262],[-4.9593,40.1305],[-4.9563,40.1333],[-4.9453,40.1326],[-4.9255,40.136],[-4.918,40.1538],[-4.9237,40.165],[-4.9231,40.1676],[-4.9247,40.17],[-4.9137,40.1736],[-4.8859,40.1906],[-4.8783,40.1903],[-4.8766,40.1918],[-4.8753,40.1978],[-4.8639,40.2045],[-4.8584,40.2035],[-4.8527,40.2082],[-4.8403,40.21],[-4.8354,40.2125],[-4.8311,40.2169],[-4.8252,40.2193],[-4.8211,40.223],[-4.8221,40.2299],[-4.8077,40.2353],[-4.8099,40.2406],[-4.812,40.2406],[-4.8111,40.2438],[-4.8131,40.2492],[-4.8182,40.2548],[-4.81,40.2594],[-4.8113,40.264],[-4.8072,40.2676],[-4.8077,40.271],[-4.8043,40.2751],[-4.7866,40.2715],[-4.7781,40.2656],[-4.7616,40.2609],[-4.7533,40.2641],[-4.7426,40.2753],[-4.7286,40.2705],[-4.7275,40.2735],[-4.7121,40.276],[-4.7137,40.2808],[-4.6981,40.2822],[-4.6941,40.2664],[-4.6976,40.2642],[-4.7026,40.2636],[-4.7029,40.2614],[-4.7018,40.2572],[-4.6929,40.2539],[-4.6872,40.2496],[-4.6937,40.2411],[-4.6866,40.2358],[-4.6896,40.2293],[-4.6862,40.2185],[-4.6873,40.212],[-4.6798,40.207],[-4.6739,40.2095],[-4.6628,40.2059],[-4.6581,40.1994],[-4.6543,40.198],[-4.6399,40.197],[-4.636,40.2004],[-4.6298,40.2018],[-4.6167,40.2],[-4.6113,40.2039],[-4.6069,40.205],[-4.6043,40.2082],[-4.6003,40.2082],[-4.5917,40.2119],[-4.5867,40.2163],[-4.5791,40.2172],[-4.5751,40.2198],[-4.5657,40.2182],[-4.5609,40.2228],[-4.5594,40.2327],[-4.5606,40.2361],[-4.5671,40.2398],[-4.5695,40.2573],[-4.5659,40.2606],[-4.5566,40.2644],[-4.5546,40.2698],[-4.5542,40.2764],[-4.5554,40.2769],[-4.55,40.2804],[-4.5472,40.2802],[-4.5438,40.2853],[-4.5349,40.2881],[-4.5294,40.2931],[-4.5369,40.3085],[-4.5367,40.3157],[-4.54,40.3212],[-4.5401,40.3279],[-4.5444,40.3301],[-4.5432,40.3322],[-4.5477,40.3404],[-4.5462,40.3418],[-4.5391,40.3405],[-4.5268,40.3449],[-4.5271,40.338],[-4.521,40.3355],[-4.5186,40.3307],[-4.5159,40.3291],[-4.513,40.3212],[-4.5049,40.3153],[-4.4992,40.3155],[-4.4911,40.3205],[-4.4853,40.3211],[-4.4673,40.3202],[-4.465,40.3184],[-4.4558,40.3194],[-4.4562,40.3208],[-4.4532,40.3248],[-4.4538,40.3331],[-4.4613,40.3398],[-4.4606,40.3414],[-4.4561,40.345],[-4.452,40.3446],[-4.4498,40.3468],[-4.443,40.3474],[-4.4386,40.3527],[-4.4412,40.3592],[-4.4392,40.3616],[-4.4419,40.3627],[-4.4413,40.3753],[-4.44,40.3768],[-4.4412,40.3785],[-4.4398,40.3795],[-4.4414,40.3827],[-4.4435,40.3834],[-4.4437,40.3857],[-4.4414,40.3872],[-4.4419,40.3888],[-4.4374,40.3897],[-4.4385,40.3913],[-4.4372,40.394],[-4.4333,40.3961],[-4.4325,40.3982],[-4.426,40.4005],[-4.4254,40.4021],[-4.4231,40.4017],[-4.4237,40.4032],[-4.4217,40.4062],[-4.4179,40.4064],[-4.4149,40.4098],[-4.4031,40.4111],[-4.3782,40.4073],[-4.3656,40.4069],[-4.3596,40.4113],[-4.3435,40.4119],[-4.3303,40.4083],[-4.3211,40.4103],[-4.3268,40.4139],[-4.3241,40.418],[-4.3235,40.4235],[-4.3305,40.4223],[-4.3346,40.4247],[-4.336,40.4275],[-4.3413,40.4287],[-4.339,40.4308],[-4.3405,40.438],[-4.338,40.4399],[-4.3313,40.4411],[-4.3351,40.4436],[-4.3303,40.445],[-4.3322,40.4488],[-4.3226,40.4494],[-4.3197,40.452],[-4.3201,40.4556],[-4.3258,40.4568],[-4.3252,40.4601],[-4.3186,40.4584],[-4.318,40.46],[-4.3201,40.4624],[-4.3157,40.4648],[-4.3186,40.4662],[-4.3171,40.4691],[-4.3202,40.4697],[-4.3196,40.471],[-4.3239,40.4775],[-4.3251,40.4923],[-4.3247,40.4988],[-4.3226,40.5016],[-4.3245,40.5044],[-4.3242,40.5065],[-4.3274,40.5072],[-4.3274,40.5095],[-4.3211,40.518],[-4.3201,40.5306],[-4.3212,40.5324],[-4.3282,40.5338],[-4.324,40.5404],[-4.3237,40.5496],[-4.3126,40.5541],[-4.3102,40.5574],[-4.2893,40.5642],[-4.289,40.5711],[-4.2868,40.5746],[-4.2854,40.5827],[-4.2812,40.5889],[-4.283,40.5901],[-4.2835,40.5956],[-4.2789,40.6008],[-4.2786,40.6032],[-4.2901,40.6077],[-4.2886,40.6249],[-4.2907,40.6278],[-4.2837,40.6291],[-4.2841,40.6313],[-4.2711,40.629],[-4.2712,40.6239],[-4.2666,40.6108],[-4.2621,40.6052],[-4.2454,40.6024],[-4.2143,40.6054],[-4.1963,40.6119],[-4.1768,40.6162],[-4.1612,40.6235],[-4.1628,40.6257],[-4.1689,40.6261],[-4.1729,40.6304],[-4.1707,40.6346],[-4.1718,40.6384],[-4.1679,40.6438],[-4.1692,40.6501],[-4.1666,40.6527],[-4.1689,40.6568],[-4.1689,40.6633],[-4.1735,40.6672],[-4.1716,40.6806],[-4.1571,40.6921],[-4.1505,40.6927],[-4.1444,40.6958],[-4.1453,40.698],[-4.1361,40.7177],[-4.1297,40.7237],[-4.1257,40.7245],[-4.1252,40.7296],[-4.1208,40.7357],[-4.1104,40.744],[-4.1041,40.747],[-4.097,40.7477],[-4.0938,40.7581],[-4.0963,40.7653],[-4.081,40.7766],[-4.0767,40.7889],[-4.0701,40.7939],[-4.047,40.7902],[-4.0422,40.7838],[-4.0363,40.7835],[-4.0324,40.7816],[-4.0213,40.7812],[-4.0036,40.7887],[-3.9797,40.7846],[-3.9781,40.7874],[-3.98,40.7994],[-3.9755,40.8037],[-3.9755,40.8069],[-3.9663,40.8141],[-3.9621,40.8234],[-3.9655,40.838],[-3.963,40.84],[-3.9625,40.8443],[-3.9569,40.8485],[-3.9504,40.8601],[-3.9471,40.863],[-3.9472,40.8733],[-3.9433,40.8803],[-3.9424,40.889],[-3.9467,40.8889],[-3.9523,40.8936],[-3.9447,40.9036],[-3.9417,40.9119],[-3.9371,40.9157],[-3.9379,40.9272],[-3.9273,40.9276],[-3.9218,40.9299],[-3.9172,40.943],[-3.9117,40.9445],[-3.9125,40.9492],[-3.9099,40.9498],[-3.9072,40.9553],[-3.8986,40.9588],[-3.8952,40.9655],[-3.8869,40.9712],[-3.8808,40.9728],[-3.879,40.9752],[-3.874,40.9748],[-3.87,40.9711],[-3.8593,40.9792],[-3.8474,40.9794],[-3.8445,40.9823],[-3.8291,40.9867],[-3.8212,40.9848],[-3.8094,40.9878],[-3.8031,40.9923],[-3.7923,40.9946],[-3.7854,41.0009],[-3.7814,41.0003],[-3.7673,41.016],[-3.7659,41.0208],[-3.759,41.0271],[-3.7555,41.0279],[-3.7483,41.0367],[-3.739,41.0497],[-3.7405,41.0536],[-3.7306,41.0614],[-3.7204,41.0656],[-3.714,41.0732],[-3.6977,41.0819],[-3.6876,41.0849],[-3.6795,41.0842],[-3.6761,41.0867],[-3.6722,41.092],[-3.6511,41.1078],[-3.645,41.1213],[-3.6335,41.1263],[-3.634,41.1349],[-3.6328,41.1363],[-3.619,41.1437],[-3.6137,41.1491],[-3.6047,41.152],[-3.6,41.1554],[-3.5912,41.1546],[-3.5893,41.1585],[-3.5827,41.1614],[-3.5692,41.1595],[-3.558,41.1644],[-3.5504,41.1657],[-3.5284,41.1662],[-3.5171,41.1629],[-3.5123,41.1673],[-3.5082,41.1677],[-3.5053,41.17],[-3.5003,41.1786],[-3.4931,41.1772],[-3.4858,41.1807],[-3.4782,41.1808],[-3.4749,41.1833],[-3.4665,41.1834],[-3.4683,41.1861],[-3.467,41.1882],[-3.463,41.1909],[-3.4594,41.1912],[-3.4559,41.1994],[-3.449,41.2067],[-3.4442,41.2153],[-3.4251,41.2142],[-3.4195,41.2165],[-3.4092,41.2118],[-3.4025,41.2136],[-3.4043,41.2188],[-3.4027,41.2274],[-3.4063,41.2342],[-3.398,41.2433],[-3.4004,41.2499],[-3.3995,41.2545],[-3.4057,41.2596],[-3.4115,41.2607],[-3.4146,41.2656],[-3.4151,41.2732],[-3.413,41.2655],[-3.4098,41.2606],[-3.4062,41.2618],[-3.3942,41.257],[-3.3694,41.2604],[-3.3555,41.256],[-3.3457,41.256],[-3.3364,41.253],[-3.3304,41.2555],[-3.3299,41.2588],[-3.3236,41.2617],[-3.3178,41.2605],[-3.3121,41.2617],[-3.2979,41.257],[-3.2902,41.2579],[-3.2879,41.2659],[-3.2836,41.2681],[-3.2791,41.274],[-3.2758,41.275],[-3.2734,41.2651],[-3.2743,41.2603],[-3.2635,41.2577],[-3.2543,41.2584],[-3.2379,41.2794],[-3.2378,41.2815],[-3.2399,41.283],[-3.2401,41.285],[-3.2379,41.2855],[-3.2389,41.2879],[-3.2312,41.2949],[-3.2262,41.2981],[-3.2151,41.2984],[-3.2126,41.3015],[-3.2074,41.3042],[-3.2037,41.3032],[-3.1998,41.3044],[-3.1921,41.3027],[-3.1885,41.3039],[-3.1775,41.2995],[-3.1709,41.299],[-3.1649,41.2954],[-3.1484,41.292],[-3.1413,41.2922],[-3.13,41.2882],[-3.125,41.2909],[-3.1087,41.2879],[-3.1002,41.2801],[-3.0968,41.28],[-3.0939,41.284],[-3.09,41.2834],[-3.0835,41.2797],[-3.073,41.2777],[-3.0619,41.2734],[-3.0607,41.2765],[-3.0367,41.2808],[-3.018,41.2891],[-3.0114,41.2854],[-3.006,41.2844],[-2.9661,41.2932],[-2.9501,41.2926],[-2.9441,41.2975],[-2.9401,41.306],[-2.9412,41.3139],[-2.9341,41.3134],[-2.9225,41.3193],[-2.911,41.3212],[-2.9067,41.3276],[-2.8979,41.3248],[-2.8884,41.3252],[-2.8827,41.3218],[-2.8755,41.3214],[-2.869,41.3171],[-2.8668,41.3131],[-2.873,41.2985],[-2.8659,41.2918],[-2.8641,41.2874],[-2.8637,41.2813],[-2.8669,41.2745],[-2.8325,41.2636],[-2.8218,41.2584],[-2.8222,41.2566],[-2.8035,41.2565],[-2.7832,41.2539],[-2.7755,41.2501],[-2.7763,41.2581],[-2.7694,41.2674],[-2.7609,41.274],[-2.7301,41.2717],[-2.7168,41.2757],[-2.7141,41.2611],[-2.7095,41.252],[-2.6914,41.2433],[-2.6736,41.2394],[-2.6703,41.2372],[-2.6548,41.2407],[-2.646,41.2402],[-2.6451,41.2379],[-2.6347,41.2319],[-2.6362,41.2238],[-2.6292,41.2152],[-2.6239,41.2237],[-2.617,41.2194],[-2.5895,41.2245],[-2.587,41.217],[-2.5874,41.2138],[-2.5937,41.2002],[-2.6031,41.194],[-2.62,41.1954],[-2.6221,41.188],[-2.6193,41.1833],[-2.6026,41.1887],[-2.5775,41.1787],[-2.5826,41.1644],[-2.5874,41.1595],[-2.5935,41.1569],[-2.596,41.1535],[-2.5953,41.1503],[-2.5813,41.1408],[-2.5756,41.1395],[-2.5676,41.1449],[-2.5552,41.1467],[-2.5425,41.1507],[-2.5396,41.1536],[-2.5394,41.1587],[-2.5365,41.1625],[-2.5174,41.1479],[-2.5174,41.137],[-2.5116,41.1315],[-2.5089,41.1189],[-2.5037,41.1175],[-2.4845,41.1178],[-2.4823,41.1163],[-2.4778,41.1099],[-2.476,41.1014],[-2.4694,41.0898],[-2.4695,41.0781],[-2.4495,41.0777],[-2.4479,41.0749],[-2.4423,41.0773],[-2.44,41.0732],[-2.441,41.0714],[-2.4297,41.0723],[-2.4298,41.0659],[-2.421,41.0606],[-2.4189,41.0577],[-2.4143,41.0609],[-2.4021,41.0617],[-2.3893,41.0695],[-2.3813,41.077],[-2.3553,41.0865],[-2.3492,41.0774],[-2.3339,41.0673],[-2.3307,41.0667],[-2.3234,41.0565],[-2.3156,41.0616],[-2.3022,41.0654],[-2.2936,41.0713],[-2.2911,41.0709],[-2.284,41.0651],[-2.2635,41.0675],[-2.2321,41.097],[-2.2226,41.0934],[-2.1753,41.0838],[-2.1757,41.0866],[-2.1673,41.0954],[-2.1434,41.1026],[-2.1359,41.1167],[-2.1319,41.1181],[-2.1207,41.1079],[-2.1174,41.1029],[-2.1094,41.0976],[-2.0975,41.0924],[-2.0897,41.0911],[-2.0815,41.0864],[-2.0767,41.0819],[-2.0787,41.0774],[-2.0717,41.0725],[-2.0564,41.0697],[-2.0482,41.0784],[-2.0575,41.0847],[-2.0656,41.0958],[-2.0637,41.1035],[-2.0604,41.1052],[-2.0627,41.1131],[-2.0592,41.1198],[-2.0506,41.1259],[-2.0517,41.1468],[-2.0773,41.1631],[-2.0799,41.171]],[[-4.3195,40.6477],[-4.3222,40.6511],[-4.3241,40.658],[-4.3177,40.6618],[-4.3162,40.6667],[-4.2931,40.6774],[-4.29,40.6806],[-4.2816,40.6805],[-4.2674,40.6745],[-4.2599,40.6658],[-4.2539,40.6619],[-4.256,40.6515],[-4.267,40.6531],[-4.2877,40.6529],[-4.3195,40.6477]]],[[[-4.1016,42.7937],[-4.0915,42.7981],[-4.0895,42.8003],[-4.0879,42.8057],[-4.0893,42.8091],[-4.0889,42.8185],[-4.1073,42.8277],[-4.1126,42.8222],[-4.1132,42.8162],[-4.1058,42.8084],[-4.1094,42.8031],[-4.1016,42.7937]]],[[[-4.1686,42.8116],[-4.1617,42.8131],[-4.1604,42.8152],[-4.1616,42.8203],[-4.177,42.8236],[-4.1798,42.8233],[-4.183,42.8205],[-4.1752,42.8118],[-4.1686,42.8116]]],[[[-2.9452,42.6039],[-2.9428,42.598],[-2.9392,42.5943],[-2.9277,42.5961],[-2.9226,42.6008],[-2.9296,42.6062],[-2.9297,42.6112],[-2.9345,42.6141],[-2.9452,42.6039]]],[[[-2.9994,42.6009],[-2.9862,42.6071],[-2.9858,42.6099],[-2.9829,42.6108],[-2.9852,42.6142],[-2.9945,42.6155],[-2.9941,42.6104],[-2.9994,42.6009]]],[[[-2.8689,42.7401],[-2.8649,42.7371],[-2.8551,42.7369],[-2.8467,42.7308],[-2.8552,42.7288],[-2.8516,42.7251],[-2.8442,42.7245],[-2.829,42.719],[-2.8253,42.7089],[-2.811,42.7067],[-2.8067,42.7023],[-2.7955,42.698],[-2.7845,42.6989],[-2.7784,42.6857],[-2.7705,42.6766],[-2.7708,42.6727],[-2.7757,42.6703],[-2.7713,42.6691],[-2.7679,42.666],[-2.7489,42.6659],[-2.735,42.6621],[-2.7265,42.6637],[-2.7192,42.6619],[-2.7145,42.6639],[-2.7148,42.6696],[-2.7034,42.6743],[-2.6871,42.6734],[-2.6846,42.6717],[-2.6799,42.6716],[-2.6779,42.6692],[-2.6707,42.6698],[-2.6664,42.6662],[-2.6592,42.6725],[-2.6539,42.67],[-2.6517,42.661],[-2.6429,42.6527],[-2.6349,42.6478],[-2.6266,42.6496],[-2.6133,42.6468],[-2.6039,42.6496],[-2.6012,42.6478],[-2.5999,42.6507],[-2.5848,42.6516],[-2.5649,42.6446],[-2.5602,42.6473],[-2.5608,42.6482],[-2.5519,42.6493],[-2.5478,42.6451],[-2.5516,42.6407],[-2.5492,42.6376],[-2.5471,42.6374],[-2.5383,42.6387],[-2.5174,42.6463],[-2.5177,42.6552],[-2.5232,42.665],[-2.522,42.684],[-2.5355,42.6875],[-2.5394,42.6866],[-2.5484,42.6688],[-2.5676,42.6705],[-2.5733,42.6681],[-2.5778,42.6682],[-2.5795,42.6689],[-2.5781,42.674],[-2.5941,42.69],[-2.6038,42.6956],[-2.609,42.696],[-2.6081,42.7071],[-2.6031,42.7087],[-2.6003,42.7153],[-2.5924,42.7106],[-2.59,42.7108],[-2.5726,42.7252],[-2.5703,42.7325],[-2.567,42.7373],[-2.5646,42.7369],[-2.5626,42.7413],[-2.5642,42.747],[-2.559,42.7532],[-2.5583,42.7627],[-2.5648,42.7629],[-2.567,42.759],[-2.575,42.7547],[-2.5894,42.7503],[-2.5917,42.7517],[-2.592,42.7589],[-2.6027,42.7662],[-2.6023,42.7706],[-2.6091,42.7708],[-2.6143,42.7684],[-2.6179,42.7708],[-2.6208,42.7694],[-2.6241,42.7705],[-2.6341,42.7651],[-2.6401,42.7663],[-2.6437,42.7647],[-2.6456,42.7672],[-2.6516,42.7675],[-2.6538,42.7724],[-2.6664,42.7747],[-2.6678,42.7724],[-2.6752,42.7763],[-2.678,42.7795],[-2.6932,42.7788],[-2.6951,42.7821],[-2.7029,42.7846],[-2.7108,42.7836],[-2.7187,42.7887],[-2.7282,42.7912],[-2.7316,42.7945],[-2.7437,42.7922],[-2.7582,42.7939],[-2.7681,42.7924],[-2.773,42.7941],[-2.7792,42.7928],[-2.8011,42.7927],[-2.8179,42.79],[-2.8268,42.7845],[-2.8288,42.7901],[-2.8355,42.7963],[-2.8418,42.7762],[-2.8453,42.7781],[-2.8539,42.7679],[-2.8535,42.7662],[-2.8484,42.7633],[-2.8523,42.7622],[-2.8511,42.7527],[-2.8558,42.7525],[-2.853,42.7478],[-2.8631,42.7454],[-2.8689,42.7401]]]]},"properties":{"NAMEUNIT":"Castilla y León","CodINE":"07"}}]}